[{"OBJECT_NAME":"SHIYAN-21 (SY-21)","OBJECT_ID":"2022-172A","EPOCH":"2026-03-09T23:40:42.191616","MEAN_MOTION":15.28197132,"ECCENTRICITY":0.00206059,"INCLINATION":35.9768,"RA_OF_ASC_NODE":332.6944,"ARG_OF_PERICENTER":79.3933,"MEAN_ANOMALY":280.9121,"EPHEMERIS_TYPE":0,"CLASSIFICATION_TYPE":"U","NORAD_CAT_ID":54752,"ELEMENT_SET_NO":999,"REV_AT_EPOCH":18050,"BSTAR":0.00041186164,"MEAN_MOTION_DOT":0.00011616,"MEAN_MOTION_DDOT":0},{"OBJECT_NAME":"STARLINK-33546","OBJECT_ID":"2024-237W","EPOCH":"2026-03-09T10:35:59.782560","MEAN_MOTION":15.27585971,"ECCENTRICITY":0.00012757,"INCLINATION":42.9966,"RA_OF_ASC_NODE":217.7844,"ARG_OF_PERICENTER":277.4764,"MEAN_ANOMALY":82.5943,"EPHEMERIS_TYPE":0,"CLASSIFICATION_TYPE":"U","NORAD_CAT_ID":62287,"ELEMENT_SET_NO":999,"REV_AT_EPOCH":7106,"BSTAR":0.0014051057,"MEAN_MOTION_DOT":0.00038613,"MEAN_MOTION_DDOT":0}]
